     3.04           N: GNSS NAV DATA    M: Mixed            RINEX VERSION / TYPE
CONVBIN demo5 b34f.1                    20220527 015936 UTC PGM / RUN BY / DATE 
log: /home/igor/git/flutter_rtklib/test/data/rcvraw/ubx_2008COMMENT             
format: u-blox UBX                                          COMMENT             
format: u-blox UBX                                          COMMENT             
log: /home/igor/git/flutter_rtklib/test/data/rcvraw/ubx_2008COMMENT             
                                                            END OF HEADER       
G18 2008 05 26 08 00 00 -.174176879227D-03  .386535248253D-11  .000000000000D+00
      .700000000000D+02  .383437500000D+02  .479234247744D-08  .107626201372D+00
      .204332172871D-05  .930169830099D-02  .808201730251D-05  .515368914413D+04
      .115200000000D+06  .391155481339D-07  .921879848956D+00  .147148966789D-06
      .947876947748D+00  .215343750000D+03 -.251114282327D+01 -.830998900154D-08
     -.395016454021D-09  .100000000000D+01  .148100000000D+04  .000000000000D+00
      .200000000000D+01  .000000000000D+00 -.107102096081D-07  .700000000000D+02
      .108006000000D+06  .400000000000D+01
G09 2008 05 26 08 00 00  .126173254102D-03  .170530256582D-11  .000000000000D+00
      .230000000000D+02 -.403750000000D+02  .435661004172D-08  .126191951496D+01
     -.242888927460D-05  .198939866386D-01  .426545739174D-05  .515366720581D+04
      .115200000000D+06 -.284984707832D-06  .294395960401D+01 -.279396772385D-06
      .971605495086D+00  .305687500000D+03  .140388383859D+01 -.837677749783D-08
      .500020827875D-10  .100000000000D+01  .148100000000D+04  .000000000000D+00
      .200000000000D+01  .000000000000D+00 -.558793544769D-08  .230000000000D+02
      .108006000000D+06  .400000000000D+01
G12 2008 05 26 08 00 00 -.359019264579D-03  .227373675443D-12  .000000000000D+00
      .111000000000D+03 -.710625000000D+02  .440589780904D-08  .250176177185D+01
     -.396929681301D-05  .344135914929D-02  .843405723572D-05  .515360666847D+04
      .115200000000D+06  .726431608200D-07 -.225391520027D+01  .149011611938D-07
      .963827649736D+00  .218875000000D+03 -.959693953802D+00 -.788354266691D-08
      .180364655769D-09  .100000000000D+01  .148100000000D+04  .000000000000D+00
      .200000000000D+01  .000000000000D+00 -.116415321827D-07  .111000000000D+03
      .108006000000D+06  .400000000000D+01
G05 2008 05 26 08 00 00  .781412236392D-03  .852651282912D-11  .000000000000D+00
      .480000000000D+02 -.715000000000D+02  .493841999073D-08  .146381811036D+00
     -.397488474846D-05  .876200734638D-02  .809319317341D-05  .515359072685D+04
      .115200000000D+06 -.117346644402D-06 -.234726796596D+01  .670552253723D-07
      .942592156187D+00  .218281250000D+03  .122300392643D+01 -.834213319762D-08
      .163935399996D-09  .100000000000D+01  .148100000000D+04  .000000000000D+00
      .200000000000D+01  .000000000000D+00 -.419095158577D-08  .480000000000D+02
      .108006000000D+06  .400000000000D+01
G30 2008 05 26 08 00 00  .782143324614D-04  .181898940355D-11  .000000000000D+00
      .540000000000D+02 -.659062500000D+02  .480948604868D-08 -.350685775836D+00
     -.357069075108D-05  .105856766459D-01  .861659646034D-05  .515373708534D+04
      .115200000000D+06 -.106170773506D-06 -.229570539942D+01  .894069671631D-07
      .948667681303D+00  .213937500000D+03  .137205534498D+01 -.830963184381D-08
      .223223583873D-09  .100000000000D+01  .148100000000D+04  .000000000000D+00
      .280000000000D+01  .000000000000D+00 -.838190317154D-08  .540000000000D+02
      .108006000000D+06  .400000000000D+01
G14 2008 05 26 08 00 00 -.262613408267D-03  .420641299570D-11  .000000000000D+00
      .490000000000D+02  .512500000000D+02  .368658213237D-08 -.190511916642D+01
      .269338488579D-05  .369863281958D-02  .561214983463D-05  .515369875336D+04
      .115200000000D+06  .726431608200D-07  .196276230075D+01 -.124797224998D-06
      .989039971976D+00  .290093750000D+03 -.216134443599D+01 -.773282210308D-08
      .414302971667D-10  .100000000000D+01  .148100000000D+04  .000000000000D+00
      .200000000000D+01  .000000000000D+00 -.884756445885D-08  .490000000000D+02
      .108006000000D+06  .400000000000D+01
G15 2008 05 26 08 00 00 -.116722192615D-03 -.579802872380D-11  .000000000000D+00
      .950000000000D+02  .585312500000D+02  .443768484739D-08 -.963826315555D+00
      .312365591526D-05  .632979674265D-03  .556930899620D-05  .515366038322D+04
      .115200000000D+06  .931322574615D-08  .192172225526D+01  .707805156708D-07
      .957430518173D+00  .271437500000D+03 -.127354714188D+01 -.817998358629D-08
      .131791203918D-09  .100000000000D+01  .148100000000D+04  .000000000000D+00
      .280000000000D+01  .000000000000D+00 -.977888703346D-08  .950000000000D+02
      .108006000000D+06  .400000000000D+01
G22 2008 05 26 08 00 00  .211259815842D-03  .113686837722D-12  .000000000000D+00
      .440000000000D+02  .423125000000D+02  .470983904084D-08 -.121305640094D+01
      .198930501938D-05  .480109802447D-02  .814348459244D-05  .515367093658D+04
      .115200000000D+06 -.242143869400D-07  .928377583933D+00  .175088644028D-06
      .945509848280D+00  .214750000000D+03 -.180496914791D+01 -.817462622028D-08
     -.434660962517D-09  .100000000000D+01  .148100000000D+04  .000000000000D+00
      .280000000000D+01  .000000000000D+00 -.181607902050D-07  .440000000000D+02
      .108006000000D+06  .400000000000D+01
G26 2008 05 26 08 00 00  .261119566858D-03  .784439180279D-11  .000000000000D+00
      .940000000000D+02  .603750000000D+02  .353407577987D-08 -.301404146994D+01
      .307522714138D-05  .191717423731D-01  .556930899620D-05  .515360910416D+04
      .115200000000D+06  .894069671631D-07  .197874351774D+01 -.219792127609D-06
      .993244781821D+00  .286781250000D+03  .933254494916D+00 -.749959810265D-08
      .175364447490D-09  .100000000000D+01  .148100000000D+04  .000000000000D+00
      .200000000000D+01  .000000000000D+00 -.605359673500D-08  .940000000000D+02
      .108006000000D+06  .400000000000D+01
S37 2008  5 26  5 59 28 -.158324837685D-07  .909494701773D-11  .108024000000D+06
     -.345443391200D+05 -.130125000000D-02  .250000000000D-07  .000000000000D+00
      .241634288000D+05 -.497500000000D-03  .112500000000D-06  .160000000000D+02
     -.114680000000D+01 -.194000000000D-02  .000000000000D+00  .000000000000D+00
S29 2008  5 26  5 59 28 -.563450157642D-07 -.109139364213D-10  .108028000000D+06
     -.323441537600D+05 -.135312500000D-02  .000000000000D+00  .000000000000D+00
      .270341429600D+05 -.816875000000D-03  .100000000000D-06  .160000000000D+02
     -.614544000000D+02 -.160000000000D-04  .312500000000D-06  .000000000000D+00
S29 2008  5 26  6  3 44 -.591389834881D-07 -.127329258248D-10  .108203000000D+06
     -.323445001600D+05 -.135250000000D-02  .125000000000D-07  .000000000000D+00
      .270339371200D+05 -.795000000000D-03  .100000000000D-06  .160000000000D+02
     -.614484000000D+02  .680000000000D-04  .312500000000D-06  .000000000000D+00
S37 2008  5 26  6  3 44 -.135041773319D-07  .909494701773D-11  .108203000000D+06
     -.345446714400D+05 -.129312500000D-02  .375000000000D-07  .000000000000D+00
      .241633051200D+05 -.468125000000D-03  .125000000000D-06  .160000000000D+02
     -.164360000000D+01 -.193600000000D-02  .000000000000D+00  .000000000000D+00
